{"type":"FeatureCollection","features":[{"type":"Feature","id":"27073","properties":{"name":"Lac qui Parle","state":"27","county":"073","fips":"27073"},"geometry":{"type":"Polygon","coordinates":[[[-96.45,44.98],[-96.45,45.04],[-96.45,45.05],[-96.45,45.09],[-96.45,45.1],[-96.45,45.12],[-96.45,45.18],[-96.45,45.2],[-96.45,45.21],[-96.45,45.27],[-96.28,45.25],[-96.1,45.18],[-96.08,45.17],[-96.05,45.16],[-96.04,45.15],[-95.74,44.94],[-95.74,44.89],[-95.85,44.89],[-95.85,44.81],[-96.45,44.81],[-96.45,44.89],[-96.45,44.91],[-96.45,44.96],[-96.45,44.98]]]}},{"type":"Feature","id":"27083","properties":{"name":"Lyon","state":"27","county":"083","fips":"27083"},"geometry":{"type":"Polygon","coordinates":[[[-96.06,44.2],[-96.08,44.2],[-96.09,44.63],[-95.6,44.63],[-95.59,44.54],[-95.59,44.2],[-96.06,44.2]]]}},{"type":"Feature","id":"27085","properties":{"name":"McLeod","state":"27","county":"085","fips":"27085"},"geometry":{"type":"Polygon","coordinates":[[[-94.5,44.89],[-94.5,44.98],[-94.26,44.98],[-94.01,44.98],[-94.01,44.72],[-94.25,44.72],[-94.25,44.63],[-94.5,44.63],[-94.5,44.72],[-94.5,44.89]]]}},{"type":"Feature","id":"27093","properties":{"name":"Meeker","state":"27","county":"093","fips":"27093"},"geometry":{"type":"Polygon","coordinates":[[[-94.26,44.98],[-94.5,44.98],[-94.5,44.89],[-94.76,44.89],[-94.76,45.33],[-94.38,45.33],[-94.38,45.28],[-94.26,45.28],[-94.26,44.98]]]}},{"type":"Feature","id":"27103","properties":{"name":"Nicollet","state":"27","county":"103","fips":"27103"},"geometry":{"type":"Polygon","coordinates":[[[-94.78,44.46],[-94.62,44.46],[-93.93,44.46],[-93.93,44.34],[-94.01,44.24],[-94.06,44.15],[-94.37,44.26],[-94.52,44.37],[-94.67,44.39],[-94.78,44.46]]]}},{"type":"Feature","id":"27113","properties":{"name":"Pennington","state":"27","county":"113","fips":"27113"},"geometry":{"type":"Polygon","coordinates":[[[-96.5,48.17],[-95.59,48.17],[-95.59,48.02],[-95.58,48.02],[-95.58,47.93],[-95.71,47.94],[-95.71,47.96],[-96.48,47.96],[-96.5,48.17]]]}},{"type":"Feature","id":"27121","properties":{"name":"Pope","state":"27","county":"121","fips":"27121"},"geometry":{"type":"Polygon","coordinates":[[[-95.75,45.41],[-95.76,45.76],[-95.14,45.76],[-95.13,45.41],[-95.26,45.41],[-95.75,45.41]]]}},{"type":"Feature","id":"27127","properties":{"name":"Redwood","state":"27","county":"127","fips":"27127"},"geometry":{"type":"Polygon","coordinates":[[[-94.87,44.5],[-94.87,44.28],[-95.11,44.28],[-95.11,44.2],[-95.46,44.2],[-95.59,44.2],[-95.59,44.54],[-95.36,44.54],[-95.36,44.7],[-95.13,44.6],[-94.87,44.5]]]}},{"type":"Feature","id":"27147","properties":{"name":"Steele","state":"27","county":"147","fips":"27147"},"geometry":{"type":"Polygon","coordinates":[[[-93.05,44.2],[-93.05,43.85],[-93.41,43.85],[-93.41,44.2],[-93.05,44.2]]]}},{"type":"Feature","id":"27153","properties":{"name":"Todd","state":"27","county":"153","fips":"27153"},"geometry":{"type":"Polygon","coordinates":[[[-94.64,45.77],[-94.77,45.77],[-95.14,45.77],[-95.15,46.11],[-95.16,46.37],[-94.73,46.37],[-94.72,46.35],[-94.65,46.35],[-94.64,45.77]]]}},{"type":"Feature","id":"27161","properties":{"name":"Waseca","state":"27","county":"161","fips":"27161"},"geometry":{"type":"Polygon","coordinates":[[[-93.77,44.2],[-93.73,44.2],[-93.65,44.2],[-93.53,44.2],[-93.41,44.2],[-93.41,43.85],[-93.65,43.85],[-93.77,43.85],[-93.77,44.2]]]}},{"type":"Feature","id":"27009","properties":{"name":"Benton","state":"27","county":"009","fips":"27009"},"geometry":{"type":"Polygon","coordinates":[[[-93.76,45.56],[-94.15,45.56],[-94.2,45.62],[-94.22,45.73],[-94.27,45.78],[-94.35,45.82],[-93.76,45.82],[-93.76,45.56]]]}},{"type":"Feature","id":"27019","properties":{"name":"Carver","state":"27","county":"019","fips":"27019"},"geometry":{"type":"Polygon","coordinates":[[[-93.77,44.98],[-93.77,44.89],[-93.52,44.89],[-93.52,44.86],[-93.52,44.8],[-93.62,44.76],[-93.62,44.71],[-93.77,44.64],[-93.89,44.72],[-94.01,44.72],[-94.01,44.98],[-93.77,44.98]]]}},{"type":"Feature","id":"27029","properties":{"name":"Clearwater","state":"27","county":"029","fips":"27029"},"geometry":{"type":"Polygon","coordinates":[[[-95.58,47.93],[-95.58,48.02],[-95.23,48.02],[-95.28,47.93],[-95.19,47.87],[-95.18,47.41],[-95.17,47.15],[-95.55,47.15],[-95.55,47.5],[-95.58,47.67],[-95.58,47.93]]]}},{"type":"Feature","id":"27039","properties":{"name":"Dodge","state":"27","county":"039","fips":"27039"},"geometry":{"type":"Polygon","coordinates":[[[-92.68,44.2],[-92.68,43.85],[-92.69,43.85],[-93.05,43.85],[-93.05,44.2],[-93.04,44.2],[-92.68,44.2]]]}},{"type":"Feature","id":"27051","properties":{"name":"Grant","state":"27","county":"051","fips":"27051"},"geometry":{"type":"Polygon","coordinates":[[[-96.27,46.02],[-96.27,46.06],[-96.27,46.11],[-95.77,46.11],[-95.76,45.76],[-96.25,45.76],[-96.27,46.02]]]}},{"type":"Feature","id":"27057","properties":{"name":"Hubbard","state":"27","county":"057","fips":"27057"},"geometry":{"type":"Polygon","coordinates":[[[-95.18,47.41],[-94.8,47.41],[-94.79,47.41],[-94.76,47.41],[-94.72,47.41],[-94.67,47.41],[-94.66,46.8],[-94.79,46.8],[-95.16,46.8],[-95.17,47.15],[-95.18,47.41]]]}},{"type":"Feature","id":"27067","properties":{"name":"Kandiyohi","state":"27","county":"067","fips":"27067"},"geometry":{"type":"Polygon","coordinates":[[[-95.13,45.41],[-94.76,45.41],[-94.76,45.33],[-94.76,44.89],[-95.25,44.89],[-95.25,45.15],[-95.26,45.41],[-95.13,45.41]]]}},{"type":"Feature","id":"27081","properties":{"name":"Lincoln","state":"27","county":"081","fips":"27081"},"geometry":{"type":"Polygon","coordinates":[[[-96.08,44.2],[-96.45,44.2],[-96.45,44.25],[-96.45,44.26],[-96.45,44.27],[-96.45,44.28],[-96.45,44.29],[-96.45,44.3],[-96.45,44.31],[-96.45,44.33],[-96.45,44.34],[-96.45,44.35],[-96.45,44.36],[-96.45,44.38],[-96.45,44.39],[-96.45,44.44],[-96.45,44.46],[-96.45,44.47],[-96.45,44.51],[-96.45,44.52],[-96.45,44.53],[-96.45,44.54],[-96.45,44.63],[-96.09,44.63],[-96.08,44.2]]]}},{"type":"Feature","id":"27089","properties":{"name":"Marshall","state":"27","county":"089","fips":"27089"},"geometry":{"type":"Polygon","coordinates":[[[-97.16,48.54],[-96.39,48.54],[-95.6,48.54],[-95.59,48.17],[-96.5,48.17],[-97.15,48.17],[-97.15,48.19],[-97.15,48.24],[-97.14,48.25],[-97.13,48.25],[-97.12,48.28],[-97.12,48.32],[-97.13,48.34],[-97.14,48.35],[-97.15,48.4],[-97.13,48.41],[-97.12,48.42],[-97.13,48.52],[-97.15,48.54],[-97.16,48.54]]]}},{"type":"Feature","id":"27091","properties":{"name":"Martin","state":"27","county":"091","fips":"27091"},"geometry":{"type":"Polygon","coordinates":[[[-94.85,43.5],[-94.85,43.85],[-94.37,43.85],[-94.25,43.85],[-94.25,43.5],[-94.38,43.5],[-94.39,43.5],[-94.44,43.5],[-94.45,43.5],[-94.47,43.5],[-94.56,43.5],[-94.57,43.5],[-94.62,43.5],[-94.85,43.5]]]}},{"type":"Feature","id":"27095","properties":{"name":"Mille Lacs","state":"27","county":"095","fips":"27095"},"geometry":{"type":"Polygon","coordinates":[[[-93.51,45.56],[-93.76,45.56],[-93.76,45.82],[-93.77,45.98],[-93.81,45.98],[-93.81,46.16],[-93.81,46.24],[-93.8,46.24],[-93.43,46.25],[-93.43,46.15],[-93.43,45.98],[-93.52,45.98],[-93.51,45.73],[-93.51,45.72],[-93.51,45.56]]]}},{"type":"Feature","id":"27097","properties":{"name":"Morrison","state":"27","county":"097","fips":"27097"},"geometry":{"type":"Polygon","coordinates":[[[-94.34,46.28],[-94.37,46.16],[-93.81,46.16],[-93.81,45.98],[-93.77,45.98],[-93.76,45.82],[-94.35,45.82],[-94.27,45.78],[-94.64,45.77],[-94.65,46.35],[-94.53,46.3],[-94.42,46.33],[-94.34,46.28]]]}},{"type":"Feature","id":"27099","properties":{"name":"Mower","state":"27","county":"099","fips":"27099"},"geometry":{"type":"Polygon","coordinates":[[[-93.01,43.5],[-93.02,43.5],[-93.05,43.5],[-93.05,43.85],[-92.69,43.85],[-92.45,43.83],[-92.45,43.5],[-92.46,43.5],[-92.55,43.5],[-92.65,43.5],[-92.67,43.5],[-92.69,43.5],[-92.71,43.5],[-92.75,43.5],[-92.79,43.5],[-92.87,43.5],[-93.01,43.5]]]}},{"type":"Feature","id":"27105","properties":{"name":"Nobles","state":"27","county":"105","fips":"27105"},"geometry":{"type":"Polygon","coordinates":[[[-96.05,43.85],[-95.46,43.85],[-95.45,43.85],[-95.45,43.5],[-95.48,43.5],[-95.49,43.5],[-95.51,43.5],[-95.74,43.5],[-95.82,43.5],[-95.83,43.5],[-95.86,43.5],[-96.05,43.5],[-96.05,43.85]]]}},{"type":"Feature","id":"27109","properties":{"name":"Olmsted","state":"27","county":"109","fips":"27109"},"geometry":{"type":"Polygon","coordinates":[[[-92.45,43.83],[-92.69,43.85],[-92.68,43.85],[-92.68,44.2],[-92.55,44.19],[-92.32,44.19],[-92.32,44.11],[-92.08,44.11],[-92.08,43.85],[-92.45,43.85],[-92.45,43.83]]]}},{"type":"Feature","id":"27111","properties":{"name":"Otter Tail","state":"27","county":"111","fips":"27111"},"geometry":{"type":"Polygon","coordinates":[[[-95.16,46.37],[-95.15,46.11],[-95.77,46.11],[-96.27,46.11],[-96.28,46.28],[-96.28,46.63],[-96.17,46.63],[-96.17,46.72],[-95.25,46.72],[-95.16,46.72],[-95.16,46.37]]]}},{"type":"Feature","id":"27115","properties":{"name":"Pine","state":"27","county":"115","fips":"27115"},"geometry":{"type":"Polygon","coordinates":[[[-92.29,46.42],[-92.29,46.32],[-92.29,46.31],[-92.29,46.3],[-92.29,46.24],[-92.29,46.22],[-92.29,46.18],[-92.29,46.17],[-92.29,46.16],[-92.29,46.11],[-92.29,46.08],[-92.29,46.07],[-92.31,46.07],[-92.33,46.07],[-92.44,46.01],[-92.66,45.92],[-92.71,45.89],[-92.72,45.88],[-92.73,45.87],[-92.76,45.82],[-92.77,45.8],[-92.78,45.76],[-92.8,45.75],[-92.84,45.73],[-93.14,45.73],[-93.14,45.98],[-93.06,45.98],[-93.05,46.16],[-93.05,46.42],[-92.29,46.42]]]}},{"type":"Feature","id":"27117","properties":{"name":"Pipestone","state":"27","county":"117","fips":"27117"},"geometry":{"type":"Polygon","coordinates":[[[-96.45,43.85],[-96.45,43.88],[-96.45,43.95],[-96.45,43.97],[-96.45,43.98],[-96.45,43.99],[-96.45,44.01],[-96.45,44.02],[-96.45,44.03],[-96.45,44.04],[-96.45,44.2],[-96.08,44.2],[-96.06,44.2],[-96.06,43.85],[-96.45,43.85]]]}},{"type":"Feature","id":"27119","properties":{"name":"Polk","state":"27","county":"119","fips":"27119"},"geometry":{"type":"Polygon","coordinates":[[[-96.89,47.67],[-96.98,47.82],[-97,47.86],[-97.02,47.87],[-97.09,48.06],[-97.1,48.07],[-97.12,48.11],[-97.15,48.17],[-96.5,48.17],[-96.48,47.96],[-96.48,47.85],[-96.35,47.85],[-96.35,47.76],[-95.84,47.76],[-95.84,47.85],[-95.71,47.85],[-95.71,47.94],[-95.58,47.93],[-95.58,47.67],[-95.55,47.5],[-95.56,47.5],[-96.07,47.5],[-96.85,47.5],[-96.84,47.51],[-96.85,47.6],[-96.89,47.66],[-96.89,47.67]]]}},{"type":"Feature","id":"27129","properties":{"name":"Renville","state":"27","county":"129","fips":"27129"},"geometry":{"type":"Polygon","coordinates":[[[-94.78,44.46],[-94.87,44.5],[-95.13,44.6],[-95.36,44.7],[-95.48,44.75],[-95.48,44.89],[-95.25,44.89],[-94.76,44.89],[-94.5,44.89],[-94.5,44.72],[-94.63,44.72],[-94.62,44.46],[-94.78,44.46]]]}},{"type":"Feature","id":"27133","properties":{"name":"Rock","state":"27","county":"133","fips":"27133"},"geometry":{"type":"Polygon","coordinates":[[[-96.45,43.85],[-96.06,43.85],[-96.05,43.85],[-96.05,43.5],[-96.2,43.5],[-96.21,43.5],[-96.33,43.5],[-96.35,43.5],[-96.45,43.5],[-96.45,43.59],[-96.45,43.61],[-96.45,43.68],[-96.45,43.69],[-96.45,43.79],[-96.45,43.81],[-96.45,43.85]]]}},{"type":"Feature","id":"27141","properties":{"name":"Sherburne","state":"27","county":"141","fips":"27141"},"geometry":{"type":"Polygon","coordinates":[[[-94.15,45.56],[-93.76,45.56],[-93.51,45.56],[-93.51,45.41],[-93.51,45.25],[-93.52,45.25],[-93.58,45.29],[-93.76,45.29],[-94.05,45.42],[-94.14,45.49],[-94.15,45.56]]]}},{"type":"Feature","id":"27145","properties":{"name":"Stearns","state":"27","county":"145","fips":"27145"},"geometry":{"type":"Polygon","coordinates":[[[-94.77,45.77],[-94.64,45.77],[-94.27,45.78],[-94.22,45.73],[-94.2,45.62],[-94.15,45.56],[-94.14,45.49],[-94.05,45.42],[-94.09,45.35],[-94.26,45.28],[-94.38,45.28],[-94.38,45.33],[-94.76,45.33],[-94.76,45.41],[-95.13,45.41],[-95.14,45.76],[-95.14,45.77],[-94.77,45.77]]]}},{"type":"Feature","id":"27149","properties":{"name":"Stevens","state":"27","county":"149","fips":"27149"},"geometry":{"type":"Polygon","coordinates":[[[-95.75,45.41],[-96.12,45.41],[-96.24,45.41],[-96.25,45.59],[-96.25,45.76],[-95.76,45.76],[-95.75,45.41]]]}},{"type":"Feature","id":"27157","properties":{"name":"Wabasha","state":"27","county":"157","fips":"27157"},"geometry":{"type":"Polygon","coordinates":[[[-92.08,44.41],[-92.05,44.39],[-91.97,44.37],[-91.96,44.36],[-91.93,44.33],[-91.92,44.32],[-91.89,44.25],[-91.89,44.24],[-91.89,44.23],[-91.88,44.2],[-91.86,44.19],[-92.08,44.19],[-92.08,44.11],[-92.32,44.11],[-92.32,44.19],[-92.55,44.19],[-92.55,44.37],[-92.43,44.37],[-92.43,44.46],[-92.24,44.45],[-92.23,44.45],[-92.22,44.44],[-92.12,44.42],[-92.08,44.41]]]}},{"type":"Feature","id":"27163","properties":{"name":"Washington","state":"27","county":"163","fips":"27163"},"geometry":{"type":"Polygon","coordinates":[[[-92.75,45.3],[-92.75,45.29],[-92.76,45.28],[-92.77,45.21],[-92.77,45.19],[-92.79,45.08],[-92.79,45.05],[-92.77,45.01],[-92.75,44.94],[-92.76,44.86],[-92.77,44.84],[-92.78,44.79],[-92.8,44.75],[-93.01,44.77],[-93.01,44.86],[-93.01,44.87],[-93.02,44.88],[-93.02,44.89],[-92.98,44.89],[-92.98,44.91],[-92.98,44.92],[-92.98,44.95],[-92.98,45.08],[-92.98,45.12],[-93.02,45.12],[-93.02,45.13],[-93.02,45.3],[-92.75,45.3]]]}},{"type":"Feature","id":"27171","properties":{"name":"Wright","state":"27","county":"171","fips":"27171"},"geometry":{"type":"Polygon","coordinates":[[[-93.52,45.25],[-93.64,45.17],[-93.65,45.16],[-93.66,45.15],[-93.67,45.15],[-93.68,45.15],[-93.76,45.08],[-93.77,44.98],[-94.01,44.98],[-94.26,44.98],[-94.26,45.28],[-94.09,45.35],[-94.05,45.42],[-93.76,45.29],[-93.58,45.29],[-93.52,45.25]]]}},{"type":"Feature","id":"27077","properties":{"name":"Lake of the Woods","state":"27","county":"077","fips":"27077"},"geometry":{"type":"Polygon","coordinates":[[[-94.43,48.71],[-94.43,48.7],[-94.43,48.37],[-95.21,48.37],[-95.21,48.54],[-95.34,48.54],[-95.34,48.71],[-95.09,48.71],[-95.09,48.92],[-95.24,48.88],[-95.32,49],[-95.15,49],[-95.15,49.18],[-95.15,49.25],[-95.15,49.31],[-95.15,49.34],[-95.15,49.35],[-95.15,49.37],[-95.15,49.38],[-95.13,49.37],[-95.06,49.35],[-95.01,49.36],[-94.99,49.37],[-94.96,49.37],[-94.91,49.35],[-94.82,49.31],[-94.8,49.2],[-94.77,49.12],[-94.75,49.1],[-94.75,49],[-94.72,49],[-94.68,48.88],[-94.69,48.86],[-94.69,48.78],[-94.65,48.75],[-94.63,48.74],[-94.53,48.7],[-94.47,48.7],[-94.43,48.71]]]}},{"type":"Feature","id":"27137","properties":{"name":"St. Louis","state":"27","county":"137","fips":"27137"},"geometry":{"type":"Polygon","coordinates":[[[-92.19,46.67],[-92.2,46.66],[-92.21,46.65],[-92.22,46.65],[-92.23,46.65],[-92.24,46.65],[-92.25,46.65],[-92.26,46.65],[-92.27,46.65],[-92.28,46.66],[-92.29,46.66],[-92.3,46.76],[-93.06,46.77],[-93.06,47.03],[-93.07,47.39],[-93.06,47.72],[-93.08,47.89],[-93.1,48.07],[-93.09,48.63],[-92.98,48.62],[-92.73,48.54],[-92.66,48.55],[-92.63,48.54],[-92.63,48.52],[-92.63,48.51],[-92.63,48.5],[-92.64,48.5],[-92.66,48.5],[-92.68,48.5],[-92.7,48.49],[-92.71,48.46],[-92.69,48.44],[-92.66,48.44],[-92.58,48.44],[-92.54,48.45],[-92.51,48.45],[-92.46,48.41],[-92.42,48.29],[-92.38,48.24],[-92.33,48.24],[-92.3,48.28],[-92.3,48.29],[-92.31,48.32],[-92.3,48.32],[-92.29,48.34],[-92.26,48.35],[-92.06,48.36],[-92.03,48.33],[-91.99,48.26],[-91.98,48.25],[-91.95,48.25],[-91.91,48.24],[-91.87,48.22],[-91.8,48.2],[-91.8,47.73],[-91.79,47.55],[-91.79,46.94],[-91.81,46.93],[-91.83,46.93],[-91.84,46.93],[-91.87,46.91],[-91.88,46.91],[-91.91,46.89],[-91.91,46.88],[-91.95,46.87],[-91.99,46.85],[-92,46.84],[-92.01,46.83],[-92.06,46.81],[-92.06,46.8],[-92.09,46.79],[-92.09,46.77],[-92.06,46.75],[-92.03,46.71],[-92.02,46.71],[-92.02,46.7],[-92.02,46.71],[-92.03,46.71],[-92.09,46.75],[-92.12,46.75],[-92.17,46.73],[-92.17,46.72],[-92.19,46.72],[-92.2,46.71],[-92.2,46.7],[-92.19,46.7],[-92.19,46.69],[-92.19,46.68],[-92.19,46.67]]]}},{"type":"Feature","id":"27001","properties":{"name":"Aitkin","state":"27","county":"001","fips":"27001"},"geometry":{"type":"Polygon","coordinates":[[[-93.78,47.03],[-93.06,47.03],[-93.06,46.77],[-93.05,46.42],[-93.05,46.16],[-93.43,46.15],[-93.43,46.25],[-93.8,46.24],[-93.81,46.58],[-93.78,46.59],[-93.78,46.8],[-93.78,47.03]]]}},{"type":"Feature","id":"27003","properties":{"name":"Anoka","state":"27","county":"003","fips":"27003"},"geometry":{"type":"Polygon","coordinates":[[[-93.2,45.12],[-93.23,45.12],[-93.23,45.05],[-93.23,45.04],[-93.28,45.04],[-93.28,45.05],[-93.28,45.1],[-93.3,45.12],[-93.31,45.14],[-93.37,45.18],[-93.51,45.25],[-93.51,45.41],[-93.02,45.41],[-93.02,45.3],[-93.02,45.13],[-93.02,45.12],[-93.19,45.12],[-93.2,45.12]]]}},{"type":"Feature","id":"27011","properties":{"name":"Big Stone","state":"27","county":"011","fips":"27011"},"geometry":{"type":"Polygon","coordinates":[[[-96.45,45.27],[-96.45,45.28],[-96.45,45.3],[-96.47,45.33],[-96.49,45.36],[-96.52,45.38],[-96.62,45.41],[-96.68,45.41],[-96.69,45.42],[-96.73,45.46],[-96.74,45.48],[-96.75,45.49],[-96.77,45.52],[-96.78,45.54],[-96.84,45.59],[-96.25,45.59],[-96.24,45.41],[-96.12,45.41],[-96.1,45.18],[-96.28,45.25],[-96.45,45.27]]]}},{"type":"Feature","id":"27017","properties":{"name":"Carlton","state":"27","county":"017","fips":"27017"},"geometry":{"type":"Polygon","coordinates":[[[-93.06,46.77],[-92.3,46.76],[-92.29,46.66],[-92.29,46.62],[-92.29,46.6],[-92.29,46.5],[-92.29,46.48],[-92.29,46.43],[-92.29,46.42],[-93.05,46.42],[-93.06,46.77]]]}},{"type":"Feature","id":"27025","properties":{"name":"Chisago","state":"27","county":"025","fips":"27025"},"geometry":{"type":"Polygon","coordinates":[[[-92.73,45.3],[-92.75,45.3],[-93.02,45.3],[-93.02,45.41],[-93.02,45.56],[-93.14,45.56],[-93.14,45.73],[-92.84,45.73],[-92.86,45.72],[-92.87,45.72],[-92.88,45.65],[-92.89,45.64],[-92.89,45.63],[-92.89,45.59],[-92.88,45.58],[-92.87,45.57],[-92.82,45.56],[-92.8,45.56],[-92.73,45.53],[-92.68,45.46],[-92.66,45.39],[-92.7,45.33],[-92.73,45.3]]]}},{"type":"Feature","id":"27035","properties":{"name":"Crow Wing","state":"27","county":"035","fips":"27035"},"geometry":{"type":"Polygon","coordinates":[[[-93.81,46.16],[-94.37,46.16],[-94.34,46.28],[-94.33,46.28],[-94.34,46.81],[-93.78,46.8],[-93.78,46.59],[-93.81,46.58],[-93.8,46.24],[-93.81,46.24],[-93.81,46.16]]]}},{"type":"Feature","id":"27037","properties":{"name":"Dakota","state":"27","county":"037","fips":"27037"},"geometry":{"type":"Polygon","coordinates":[[[-92.8,44.75],[-92.74,44.72],[-92.73,44.71],[-92.73,44.63],[-92.79,44.63],[-92.79,44.54],[-93.04,44.52],[-93.04,44.47],[-93.28,44.47],[-93.28,44.54],[-93.32,44.63],[-93.33,44.79],[-93.2,44.86],[-93.19,44.87],[-93.19,44.88],[-93.18,44.88],[-93.18,44.89],[-93.13,44.92],[-93.02,44.89],[-93.02,44.88],[-93.01,44.87],[-93.01,44.86],[-93.01,44.77],[-92.8,44.75]]]}},{"type":"Feature","id":"27041","properties":{"name":"Douglas","state":"27","county":"041","fips":"27041"},"geometry":{"type":"Polygon","coordinates":[[[-95.76,45.76],[-95.77,46.11],[-95.15,46.11],[-95.14,45.77],[-95.14,45.76],[-95.76,45.76]]]}},{"type":"Feature","id":"27043","properties":{"name":"Faribault","state":"27","county":"043","fips":"27043"},"geometry":{"type":"Polygon","coordinates":[[[-94.25,43.85],[-93.77,43.85],[-93.65,43.85],[-93.65,43.5],[-93.7,43.5],[-93.71,43.5],[-93.72,43.5],[-93.79,43.5],[-93.8,43.5],[-93.97,43.5],[-94.09,43.5],[-94.11,43.5],[-94.25,43.5],[-94.25,43.85]]]}},{"type":"Feature","id":"27045","properties":{"name":"Fillmore","state":"27","county":"045","fips":"27045"},"geometry":{"type":"Polygon","coordinates":[[[-92.45,43.83],[-92.45,43.85],[-92.08,43.85],[-91.73,43.85],[-91.73,43.5],[-91.74,43.5],[-91.76,43.5],[-91.78,43.5],[-91.8,43.5],[-91.81,43.5],[-91.82,43.5],[-91.94,43.5],[-91.95,43.5],[-92.08,43.5],[-92.09,43.5],[-92.1,43.5],[-92.18,43.5],[-92.2,43.5],[-92.28,43.5],[-92.37,43.5],[-92.39,43.5],[-92.41,43.5],[-92.45,43.5],[-92.45,43.83]]]}},{"type":"Feature","id":"27053","properties":{"name":"Hennepin","state":"27","county":"053","fips":"27053"},"geometry":{"type":"Polygon","coordinates":[[[-93.21,45.04],[-93.18,44.89],[-93.18,44.88],[-93.19,44.88],[-93.19,44.87],[-93.2,44.86],[-93.33,44.79],[-93.52,44.8],[-93.52,44.86],[-93.52,44.89],[-93.77,44.89],[-93.77,44.98],[-93.76,45.08],[-93.68,45.15],[-93.67,45.15],[-93.66,45.15],[-93.65,45.16],[-93.64,45.17],[-93.52,45.25],[-93.51,45.25],[-93.37,45.18],[-93.31,45.14],[-93.3,45.12],[-93.28,45.1],[-93.28,45.05],[-93.28,45.04],[-93.23,45.04],[-93.21,45.04]]]}},{"type":"Feature","id":"27059","properties":{"name":"Isanti","state":"27","county":"059","fips":"27059"},"geometry":{"type":"Polygon","coordinates":[[[-93.51,45.56],[-93.51,45.72],[-93.51,45.73],[-93.4,45.73],[-93.14,45.73],[-93.14,45.56],[-93.02,45.56],[-93.02,45.41],[-93.51,45.41],[-93.51,45.56]]]}},{"type":"Feature","id":"27063","properties":{"name":"Jackson","state":"27","county":"063","fips":"27063"},"geometry":{"type":"Polygon","coordinates":[[[-95.38,43.5],[-95.39,43.5],[-95.43,43.5],[-95.45,43.5],[-95.45,43.85],[-94.86,43.85],[-94.85,43.85],[-94.85,43.5],[-94.86,43.5],[-94.87,43.5],[-94.89,43.5],[-94.91,43.5],[-94.93,43.5],[-94.95,43.5],[-94.97,43.5],[-94.99,43.5],[-95.01,43.5],[-95.03,43.5],[-95.05,43.5],[-95.11,43.5],[-95.12,43.5],[-95.17,43.5],[-95.18,43.5],[-95.21,43.5],[-95.25,43.5],[-95.37,43.5],[-95.38,43.5]]]}},{"type":"Feature","id":"27065","properties":{"name":"Kanabec","state":"27","county":"065","fips":"27065"},"geometry":{"type":"Polygon","coordinates":[[[-93.14,45.73],[-93.4,45.73],[-93.51,45.73],[-93.52,45.98],[-93.43,45.98],[-93.43,46.15],[-93.05,46.16],[-93.06,45.98],[-93.14,45.98],[-93.14,45.73]]]}},{"type":"Feature","id":"27069","properties":{"name":"Kittson","state":"27","county":"069","fips":"27069"},"geometry":{"type":"Polygon","coordinates":[[[-97.16,48.54],[-97.09,48.68],[-97.14,48.75],[-97.16,48.79],[-97.2,48.88],[-97.23,48.95],[-97.24,48.97],[-97.24,48.98],[-97.23,49],[-96.41,49],[-96.39,48.54],[-97.16,48.54]]]}},{"type":"Feature","id":"27071","properties":{"name":"Koochiching","state":"27","county":"071","fips":"27071"},"geometry":{"type":"Polygon","coordinates":[[[-93.09,48.63],[-93.1,48.07],[-93.08,47.89],[-93.78,47.9],[-93.78,47.85],[-94.42,47.85],[-94.43,48.37],[-94.43,48.7],[-94.43,48.71],[-94.42,48.71],[-94.39,48.71],[-94.31,48.71],[-94.29,48.71],[-94.26,48.7],[-94.25,48.68],[-94.25,48.66],[-94.24,48.65],[-94.22,48.65],[-94.13,48.64],[-94.05,48.64],[-93.84,48.63],[-93.83,48.62],[-93.82,48.61],[-93.81,48.58],[-93.81,48.57],[-93.81,48.54],[-93.82,48.53],[-93.79,48.52],[-93.77,48.52],[-93.76,48.52],[-93.66,48.52],[-93.54,48.53],[-93.47,48.55],[-93.46,48.55],[-93.46,48.56],[-93.46,48.57],[-93.47,48.59],[-93.46,48.59],[-93.4,48.61],[-93.37,48.61],[-93.35,48.63],[-93.25,48.64],[-93.21,48.64],[-93.18,48.62],[-93.14,48.62],[-93.09,48.63]]]}},{"type":"Feature","id":"27079","properties":{"name":"Le Sueur","state":"27","county":"079","fips":"27079"},"geometry":{"type":"Polygon","coordinates":[[[-93.65,44.2],[-93.73,44.2],[-93.77,44.2],[-93.77,44.24],[-94.01,44.24],[-93.93,44.34],[-93.93,44.46],[-93.91,44.54],[-93.52,44.54],[-93.53,44.2],[-93.65,44.2]]]}},{"type":"Feature","id":"27087","properties":{"name":"Mahnomen","state":"27","county":"087","fips":"27087"},"geometry":{"type":"Polygon","coordinates":[[[-96.07,47.5],[-95.56,47.5],[-95.55,47.5],[-95.55,47.15],[-96.07,47.15],[-96.07,47.5]]]}},{"type":"Feature","id":"27101","properties":{"name":"Murray","state":"27","county":"101","fips":"27101"},"geometry":{"type":"Polygon","coordinates":[[[-95.46,43.85],[-96.05,43.85],[-96.06,43.85],[-96.06,44.2],[-95.59,44.2],[-95.46,44.2],[-95.46,43.85]]]}},{"type":"Feature","id":"27107","properties":{"name":"Norman","state":"27","county":"107","fips":"27107"},"geometry":{"type":"Polygon","coordinates":[[[-96.83,47.15],[-96.83,47.24],[-96.85,47.37],[-96.86,47.42],[-96.85,47.5],[-96.07,47.5],[-96.07,47.15],[-96.19,47.15],[-96.83,47.15]]]}},{"type":"Feature","id":"27125","properties":{"name":"Red Lake","state":"27","county":"125","fips":"27125"},"geometry":{"type":"Polygon","coordinates":[[[-95.71,47.94],[-95.71,47.85],[-95.84,47.85],[-95.84,47.76],[-96.35,47.76],[-96.35,47.85],[-96.48,47.85],[-96.48,47.96],[-95.71,47.96],[-95.71,47.94]]]}},{"type":"Feature","id":"27131","properties":{"name":"Rice","state":"27","county":"131","fips":"27131"},"geometry":{"type":"Polygon","coordinates":[[[-93.28,44.54],[-93.28,44.47],[-93.04,44.47],[-93.04,44.2],[-93.05,44.2],[-93.41,44.2],[-93.53,44.2],[-93.52,44.54],[-93.28,44.54]]]}},{"type":"Feature","id":"27143","properties":{"name":"Sibley","state":"27","county":"143","fips":"27143"},"geometry":{"type":"Polygon","coordinates":[[[-93.93,44.46],[-94.62,44.46],[-94.63,44.72],[-94.5,44.72],[-94.5,44.63],[-94.25,44.63],[-94.25,44.72],[-94.01,44.72],[-93.89,44.72],[-93.77,44.64],[-93.86,44.62],[-93.91,44.54],[-93.93,44.46]]]}},{"type":"Feature","id":"27159","properties":{"name":"Wadena","state":"27","county":"159","fips":"27159"},"geometry":{"type":"Polygon","coordinates":[[[-94.79,46.8],[-94.78,46.39],[-94.73,46.37],[-95.16,46.37],[-95.16,46.72],[-95.16,46.8],[-94.79,46.8]]]}},{"type":"Feature","id":"27169","properties":{"name":"Winona","state":"27","county":"169","fips":"27169"},"geometry":{"type":"Polygon","coordinates":[[[-91.56,44.02],[-91.55,44.02],[-91.51,44.02],[-91.46,44.01],[-91.44,44],[-91.43,44],[-91.42,43.98],[-91.36,43.93],[-91.31,43.87],[-91.3,43.86],[-91.28,43.85],[-91.73,43.85],[-92.08,43.85],[-92.08,44.11],[-92.08,44.19],[-91.86,44.19],[-91.81,44.16],[-91.74,44.13],[-91.72,44.13],[-91.67,44.09],[-91.59,44.03],[-91.58,44.03],[-91.56,44.02]]]}},{"type":"Feature","id":"27005","properties":{"name":"Becker","state":"27","county":"005","fips":"27005"},"geometry":{"type":"Polygon","coordinates":[[[-95.16,46.8],[-95.16,46.72],[-95.25,46.72],[-96.17,46.72],[-96.17,46.98],[-96.19,47.15],[-96.07,47.15],[-95.55,47.15],[-95.17,47.15],[-95.16,46.8]]]}},{"type":"Feature","id":"27013","properties":{"name":"Blue Earth","state":"27","county":"013","fips":"27013"},"geometry":{"type":"Polygon","coordinates":[[[-93.77,43.85],[-94.25,43.85],[-94.37,43.85],[-94.37,44.11],[-94.37,44.26],[-94.06,44.15],[-94.01,44.24],[-93.77,44.24],[-93.77,44.2],[-93.77,43.85]]]}},{"type":"Feature","id":"27023","properties":{"name":"Chippewa","state":"27","county":"023","fips":"27023"},"geometry":{"type":"Polygon","coordinates":[[[-95.74,44.94],[-96.04,45.15],[-95.25,45.15],[-95.25,44.89],[-95.48,44.89],[-95.48,44.75],[-95.5,44.79],[-95.74,44.94]]]}},{"type":"Feature","id":"27033","properties":{"name":"Cottonwood","state":"27","county":"033","fips":"27033"},"geometry":{"type":"Polygon","coordinates":[[[-94.86,43.85],[-95.45,43.85],[-95.46,43.85],[-95.46,44.2],[-95.11,44.2],[-95.1,44.11],[-94.86,44.11],[-94.86,43.85]]]}},{"type":"Feature","id":"27047","properties":{"name":"Freeborn","state":"27","county":"047","fips":"27047"},"geometry":{"type":"Polygon","coordinates":[[[-93.65,43.85],[-93.41,43.85],[-93.05,43.85],[-93.05,43.5],[-93.23,43.5],[-93.27,43.5],[-93.4,43.5],[-93.43,43.5],[-93.47,43.5],[-93.48,43.5],[-93.49,43.5],[-93.5,43.5],[-93.53,43.5],[-93.56,43.5],[-93.58,43.5],[-93.62,43.5],[-93.65,43.5],[-93.65,43.85]]]}},{"type":"Feature","id":"27061","properties":{"name":"Itasca","state":"27","county":"061","fips":"27061"},"geometry":{"type":"Polygon","coordinates":[[[-94.42,47.44],[-94.42,47.76],[-94.42,47.85],[-93.78,47.85],[-93.78,47.9],[-93.08,47.89],[-93.06,47.72],[-93.07,47.39],[-93.06,47.03],[-93.78,47.03],[-93.77,47.21],[-93.81,47.23],[-93.77,47.31],[-93.93,47.3],[-94.03,47.35],[-94.03,47.41],[-94.1,47.48],[-94.33,47.42],[-94.42,47.44]]]}},{"type":"Feature","id":"27075","properties":{"name":"Lake","state":"27","county":"075","fips":"27075"},"geometry":{"type":"Polygon","coordinates":[[[-91.02,47.46],[-91.03,47.46],[-91.05,47.46],[-91.08,47.43],[-91.1,47.41],[-91.11,47.41],[-91.13,47.4],[-91.13,47.39],[-91.15,47.38],[-91.16,47.38],[-91.17,47.37],[-91.19,47.34],[-91.21,47.33],[-91.24,47.3],[-91.25,47.29],[-91.26,47.28],[-91.27,47.28],[-91.29,47.27],[-91.33,47.24],[-91.35,47.21],[-91.36,47.21],[-91.37,47.2],[-91.39,47.19],[-91.4,47.18],[-91.42,47.17],[-91.45,47.15],[-91.46,47.14],[-91.48,47.13],[-91.5,47.12],[-91.51,47.12],[-91.52,47.11],[-91.57,47.09],[-91.59,47.07],[-91.6,47.06],[-91.61,47.06],[-91.63,47.05],[-91.64,47.04],[-91.64,47.03],[-91.66,47.02],[-91.67,47.01],[-91.7,47.01],[-91.74,46.98],[-91.78,46.95],[-91.79,46.94],[-91.79,47.55],[-91.8,47.73],[-91.8,48.2],[-91.79,48.2],[-91.74,48.2],[-91.71,48.2],[-91.71,48.19],[-91.7,48.14],[-91.71,48.12],[-91.71,48.11],[-91.64,48.1],[-91.57,48.09],[-91.49,48.07],[-91.34,48.07],[-91.33,48.07],[-91.29,48.07],[-91.27,48.08],[-91.25,48.08],[-91.18,48.13],[-91.14,48.15],[-91.04,48.19],[-91.03,48.19],[-91.02,47.89],[-91.02,47.46]]]}},{"type":"Feature","id":"27123","properties":{"name":"Ramsey","state":"27","county":"123","fips":"27123"},"geometry":{"type":"Polygon","coordinates":[[[-93.23,45.12],[-93.2,45.12],[-93.19,45.12],[-93.02,45.12],[-92.98,45.12],[-92.98,45.08],[-92.98,44.95],[-92.98,44.92],[-92.98,44.91],[-92.98,44.89],[-93.02,44.89],[-93.13,44.92],[-93.18,44.89],[-93.21,45.04],[-93.23,45.04],[-93.23,45.05],[-93.23,45.12]]]}},{"type":"Feature","id":"27135","properties":{"name":"Roseau","state":"27","county":"135","fips":"27135"},"geometry":{"type":"Polygon","coordinates":[[[-95.32,49],[-95.24,48.88],[-95.09,48.92],[-95.09,48.71],[-95.34,48.71],[-95.34,48.54],[-95.59,48.54],[-95.6,48.54],[-96.39,48.54],[-96.41,49],[-95.37,49],[-95.36,49],[-95.34,49],[-95.32,49]]]}},{"type":"Feature","id":"27151","properties":{"name":"Swift","state":"27","county":"151","fips":"27151"},"geometry":{"type":"Polygon","coordinates":[[[-95.75,45.41],[-95.26,45.41],[-95.25,45.15],[-96.04,45.15],[-96.05,45.16],[-96.08,45.17],[-96.1,45.18],[-96.12,45.41],[-95.75,45.41]]]}},{"type":"Feature","id":"27155","properties":{"name":"Traverse","state":"27","county":"155","fips":"27155"},"geometry":{"type":"Polygon","coordinates":[[[-96.84,45.59],[-96.85,45.6],[-96.86,45.61],[-96.84,45.64],[-96.84,45.65],[-96.75,45.7],[-96.71,45.72],[-96.67,45.73],[-96.65,45.75],[-96.58,45.82],[-96.58,45.83],[-96.58,45.84],[-96.57,45.86],[-96.57,45.89],[-96.57,45.9],[-96.57,45.91],[-96.56,45.92],[-96.56,45.93],[-96.56,45.94],[-96.57,45.96],[-96.58,46.02],[-96.27,46.02],[-96.25,45.76],[-96.25,45.59],[-96.84,45.59]]]}},{"type":"Feature","id":"27165","properties":{"name":"Watonwan","state":"27","county":"165","fips":"27165"},"geometry":{"type":"Polygon","coordinates":[[[-94.37,43.85],[-94.85,43.85],[-94.86,43.85],[-94.86,44.11],[-94.37,44.11],[-94.37,43.85]]]}},{"type":"Feature","id":"27167","properties":{"name":"Wilkin","state":"27","county":"167","fips":"27167"},"geometry":{"type":"Polygon","coordinates":[[[-96.58,46.02],[-96.58,46.03],[-96.57,46.05],[-96.56,46.06],[-96.55,46.08],[-96.56,46.1],[-96.58,46.17],[-96.59,46.18],[-96.6,46.26],[-96.6,46.31],[-96.63,46.35],[-96.67,46.38],[-96.72,46.44],[-96.74,46.54],[-96.78,46.63],[-96.28,46.63],[-96.28,46.28],[-96.27,46.11],[-96.27,46.06],[-96.27,46.02],[-96.58,46.02]]]}},{"type":"Feature","id":"27173","properties":{"name":"Yellow Medicine","state":"27","county":"173","fips":"27173"},"geometry":{"type":"Polygon","coordinates":[[[-96.45,44.63],[-96.45,44.7],[-96.45,44.76],[-96.45,44.78],[-96.45,44.79],[-96.45,44.8],[-96.45,44.81],[-95.85,44.81],[-95.85,44.89],[-95.74,44.89],[-95.74,44.94],[-95.5,44.79],[-95.48,44.75],[-95.36,44.7],[-95.36,44.54],[-95.59,44.54],[-95.6,44.63],[-96.09,44.63],[-96.45,44.63]]]}},{"type":"Feature","id":"27007","properties":{"name":"Beltrami","state":"27","county":"007","fips":"27007"},"geometry":{"type":"Polygon","coordinates":[[[-94.42,47.76],[-94.42,47.44],[-94.42,47.41],[-94.67,47.41],[-94.72,47.41],[-94.76,47.41],[-94.79,47.41],[-94.8,47.41],[-95.18,47.41],[-95.19,47.87],[-95.28,47.93],[-95.23,48.02],[-95.58,48.02],[-95.59,48.02],[-95.59,48.17],[-95.6,48.54],[-95.59,48.54],[-95.34,48.54],[-95.21,48.54],[-95.21,48.37],[-94.43,48.37],[-94.42,47.85],[-94.42,47.76]]]}},{"type":"Feature","id":"27015","properties":{"name":"Brown","state":"27","county":"015","fips":"27015"},"geometry":{"type":"Polygon","coordinates":[[[-94.78,44.46],[-94.67,44.39],[-94.52,44.37],[-94.37,44.26],[-94.37,44.11],[-94.86,44.11],[-95.1,44.11],[-95.11,44.2],[-95.11,44.28],[-94.87,44.28],[-94.87,44.5],[-94.78,44.46]]]}},{"type":"Feature","id":"27021","properties":{"name":"Cass","state":"27","county":"021","fips":"27021"},"geometry":{"type":"Polygon","coordinates":[[[-94.34,46.28],[-94.42,46.33],[-94.53,46.3],[-94.65,46.35],[-94.72,46.35],[-94.73,46.37],[-94.78,46.39],[-94.79,46.8],[-94.66,46.8],[-94.67,47.41],[-94.42,47.41],[-94.42,47.44],[-94.33,47.42],[-94.1,47.48],[-94.03,47.41],[-94.03,47.35],[-93.93,47.3],[-93.77,47.31],[-93.81,47.23],[-93.77,47.21],[-93.78,47.03],[-93.78,46.8],[-94.34,46.81],[-94.33,46.28],[-94.34,46.28]]]}},{"type":"Feature","id":"27027","properties":{"name":"Clay","state":"27","county":"027","fips":"27027"},"geometry":{"type":"Polygon","coordinates":[[[-96.78,46.63],[-96.78,46.69],[-96.8,46.81],[-96.77,46.91],[-96.78,46.93],[-96.79,46.93],[-96.82,46.97],[-96.82,46.99],[-96.82,47],[-96.82,47.12],[-96.83,47.15],[-96.19,47.15],[-96.17,46.98],[-96.17,46.72],[-96.17,46.63],[-96.28,46.63],[-96.78,46.63]]]}},{"type":"Feature","id":"27031","properties":{"name":"Cook","state":"27","county":"031","fips":"27031"},"geometry":{"type":"Polygon","coordinates":[[[-91.03,48.19],[-90.98,48.22],[-90.89,48.25],[-90.85,48.24],[-90.84,48.24],[-90.8,48.18],[-90.79,48.14],[-90.8,48.14],[-90.79,48.14],[-90.78,48.12],[-90.77,48.12],[-90.76,48.1],[-90.75,48.09],[-90.57,48.11],[-90.5,48.1],[-90.45,48.11],[-90.4,48.11],[-90.34,48.09],[-90.34,48.1],[-90.33,48.1],[-90.31,48.11],[-90.18,48.11],[-90.14,48.11],[-90.13,48.11],[-90.12,48.11],[-90.09,48.1],[-90.07,48.1],[-90.02,48.08],[-90,48.06],[-89.99,48.05],[-90,48.04],[-89.99,48.03],[-89.97,48.01],[-89.9,47.99],[-89.87,47.99],[-89.85,47.99],[-89.82,48.02],[-89.76,48.02],[-89.75,48.02],[-89.72,48.02],[-89.69,48.01],[-89.66,48.01],[-89.56,48],[-89.49,48.01],[-89.5,48],[-89.54,47.99],[-89.55,47.99],[-89.55,47.98],[-89.56,47.97],[-89.57,47.97],[-89.59,47.97],[-89.6,47.97],[-89.61,47.98],[-89.62,47.98],[-89.63,47.98],[-89.64,47.97],[-89.64,47.96],[-89.64,47.95],[-89.66,47.95],[-89.7,47.94],[-89.73,47.93],[-89.74,47.92],[-89.76,47.91],[-89.79,47.89],[-89.85,47.87],[-89.87,47.87],[-89.92,47.86],[-89.93,47.86],[-89.93,47.85],[-89.97,47.83],[-90.01,47.82],[-90.04,47.82],[-90.07,47.81],[-90.08,47.8],[-90.09,47.8],[-90.12,47.8],[-90.13,47.8],[-90.16,47.79],[-90.18,47.79],[-90.19,47.78],[-90.23,47.78],[-90.25,47.77],[-90.3,47.76],[-90.31,47.76],[-90.32,47.75],[-90.33,47.75],[-90.39,47.74],[-90.42,47.74],[-90.44,47.73],[-90.46,47.72],[-90.54,47.7],[-90.55,47.69],[-90.58,47.68],[-90.65,47.66],[-90.69,47.64],[-90.74,47.62],[-90.87,47.56],[-90.91,47.53],[-90.91,47.52],[-90.92,47.52],[-90.93,47.52],[-90.94,47.51],[-91.02,47.46],[-91.02,47.89],[-91.03,48.19]]]}},{"type":"Feature","id":"27049","properties":{"name":"Goodhue","state":"27","county":"049","fips":"27049"},"geometry":{"type":"Polygon","coordinates":[[[-92.32,44.54],[-92.31,44.54],[-92.3,44.52],[-92.3,44.5],[-92.29,44.49],[-92.28,44.47],[-92.24,44.45],[-92.43,44.46],[-92.43,44.37],[-92.55,44.37],[-92.55,44.19],[-92.68,44.2],[-93.04,44.2],[-93.04,44.47],[-93.04,44.52],[-92.79,44.54],[-92.79,44.63],[-92.73,44.63],[-92.73,44.71],[-92.63,44.65],[-92.62,44.64],[-92.62,44.63],[-92.55,44.58],[-92.53,44.57],[-92.49,44.57],[-92.36,44.56],[-92.34,44.56],[-92.33,44.55],[-92.32,44.54]]]}},{"type":"Feature","id":"27055","properties":{"name":"Houston","state":"27","county":"055","fips":"27055"},"geometry":{"type":"Polygon","coordinates":[[[-91.26,43.79],[-91.27,43.73],[-91.27,43.67],[-91.27,43.62],[-91.27,43.61],[-91.22,43.5],[-91.37,43.5],[-91.38,43.5],[-91.44,43.5],[-91.45,43.5],[-91.46,43.5],[-91.47,43.5],[-91.49,43.5],[-91.53,43.5],[-91.54,43.5],[-91.55,43.5],[-91.59,43.5],[-91.61,43.5],[-91.62,43.5],[-91.63,43.5],[-91.64,43.5],[-91.65,43.5],[-91.66,43.5],[-91.67,43.5],[-91.7,43.5],[-91.73,43.5],[-91.73,43.85],[-91.28,43.85],[-91.26,43.79]]]}},{"type":"Feature","id":"27139","properties":{"name":"Scott","state":"27","county":"139","fips":"27139"},"geometry":{"type":"Polygon","coordinates":[[[-93.33,44.79],[-93.32,44.63],[-93.28,44.54],[-93.52,44.54],[-93.91,44.54],[-93.86,44.62],[-93.77,44.64],[-93.62,44.71],[-93.62,44.76],[-93.52,44.8],[-93.33,44.79]]]}}]}